CCSDS_OMM_VERS = 2.0
CREATION_DATE  = 
ORIGINATOR     = 

OBJECT_NAME    = SL-4 R/B
OBJECT_ID      = 2014-021B
CENTER_NAME    = EARTH
REF_FRAME      = TEME
TIME_SYSTEM    = UTC
MEAN_ELEMENT_THEORY = SGP/SGP4

EPOCH          = 2026-02-20T08:30:36.672768
MEAN_MOTION    = 15.38556195
ECCENTRICITY   = .00987855
INCLINATION    = 51.6065
RA_OF_ASC_NODE = 61.8055
ARG_OF_PERICENTER = 39.7663
MEAN_ANOMALY   = 321.0508

EPHEMERIS_TYPE = 0
CLASSIFICATION_TYPE = U
NORAD_CAT_ID   = 39679
ELEMENT_SET_NO = 999
REV_AT_EPOCH   = 65360
BSTAR          = .27102208E-3
MEAN_MOTION_DOT = .11967E-3
MEAN_MOTION_DDOT = 0

CCSDS_OMM_VERS = 2.0
CREATION_DATE  = 
ORIGINATOR     = 

OBJECT_NAME    = ALOS-2
OBJECT_ID      = 2014-029A
CENTER_NAME    = EARTH
REF_FRAME      = TEME
TIME_SYSTEM    = UTC
MEAN_ELEMENT_THEORY = SGP/SGP4

EPOCH          = 2026-02-20T22:42:10.423008
MEAN_MOTION    = 14.79467646
ECCENTRICITY   = .00015753
INCLINATION    = 97.9208
RA_OF_ASC_NODE = 150.7846
ARG_OF_PERICENTER = 100.3443
MEAN_ANOMALY   = 259.7946

EPHEMERIS_TYPE = 0
CLASSIFICATION_TYPE = U
NORAD_CAT_ID   = 39766
ELEMENT_SET_NO = 999
REV_AT_EPOCH   = 63439
BSTAR          = .14103822E-3
MEAN_MOTION_DOT = .1002E-4
MEAN_MOTION_DDOT = 0

CCSDS_OMM_VERS = 2.0
CREATION_DATE  = 
ORIGINATOR     = 

OBJECT_NAME    = YAOGAN-29
OBJECT_ID      = 2015-069A
CENTER_NAME    = EARTH
REF_FRAME      = TEME
TIME_SYSTEM    = UTC
MEAN_ELEMENT_THEORY = SGP/SGP4

EPOCH          = 2026-02-20T23:51:03.919968
MEAN_MOTION    = 14.82974506
ECCENTRICITY   = .00027325
INCLINATION    = 98.0159
RA_OF_ASC_NODE = 80.3767
ARG_OF_PERICENTER = 63.9784
MEAN_ANOMALY   = 296.1711

EPHEMERIS_TYPE = 0
CLASSIFICATION_TYPE = U
NORAD_CAT_ID   = 41038
ELEMENT_SET_NO = 999
REV_AT_EPOCH   = 55340
BSTAR          = .11592947E-4
MEAN_MOTION_DOT = .4E-6
MEAN_MOTION_DDOT = 0

CCSDS_OMM_VERS = 2.0
CREATION_DATE  = 
ORIGINATOR     = 

OBJECT_NAME    = ASTRO-H (HITOMI)
OBJECT_ID      = 2016-012A
CENTER_NAME    = EARTH
REF_FRAME      = TEME
TIME_SYSTEM    = UTC
MEAN_ELEMENT_THEORY = SGP/SGP4

EPOCH          = 2026-02-20T12:18:20.259936
MEAN_MOTION    = 15.09870715
ECCENTRICITY   = .00098999
INCLINATION    = 30.9991
RA_OF_ASC_NODE = 107.3818
ARG_OF_PERICENTER = 160.3808
MEAN_ANOMALY   = 199.7213

EPHEMERIS_TYPE = 0
CLASSIFICATION_TYPE = U
NORAD_CAT_ID   = 41337
ELEMENT_SET_NO = 999
REV_AT_EPOCH   = 54963
BSTAR          = .16123187E-3
MEAN_MOTION_DOT = .2772E-4
MEAN_MOTION_DDOT = 0

CCSDS_OMM_VERS = 2.0
CREATION_DATE  = 
ORIGINATOR     = 

OBJECT_NAME    = HXMT (HUIYAN)
OBJECT_ID      = 2017-034A
CENTER_NAME    = EARTH
REF_FRAME      = TEME
TIME_SYSTEM    = UTC
MEAN_ELEMENT_THEORY = SGP/SGP4

EPOCH          = 2026-02-20T14:19:02.891136
MEAN_MOTION    = 15.17234358
ECCENTRICITY   = .00307481
INCLINATION    = 43.0138
RA_OF_ASC_NODE = 111.6867
ARG_OF_PERICENTER = 128.0081
MEAN_ANOMALY   = 232.3550

EPHEMERIS_TYPE = 0
CLASSIFICATION_TYPE = U
NORAD_CAT_ID   = 42758
ELEMENT_SET_NO = 999
REV_AT_EPOCH   = 47994
BSTAR          = .25193435E-3
MEAN_MOTION_DOT = .4923E-4
MEAN_MOTION_DDOT = 0

CCSDS_OMM_VERS = 2.0
CREATION_DATE  = 
ORIGINATOR     = 

OBJECT_NAME    = CZ-2C R/B
OBJECT_ID      = 2018-054D
CENTER_NAME    = EARTH
REF_FRAME      = TEME
TIME_SYSTEM    = UTC
MEAN_ELEMENT_THEORY = SGP/SGP4

EPOCH          = 2026-02-20T09:57:36.284256
MEAN_MOTION    = 16.08190178
ECCENTRICITY   = .00115125
INCLINATION    = 35.1266
RA_OF_ASC_NODE = 60.0002
ARG_OF_PERICENTER = 146.6244
MEAN_ANOMALY   = 213.5227

EPHEMERIS_TYPE = 0
CLASSIFICATION_TYPE = U
NORAD_CAT_ID   = 43521
ELEMENT_SET_NO = 999
REV_AT_EPOCH   = 42612
BSTAR          = .79853137E-3
MEAN_MOTION_DOT = .712177E-2
MEAN_MOTION_DDOT = .2577902E-3

CCSDS_OMM_VERS = 2.0
CREATION_DATE  = 
ORIGINATOR     = 

OBJECT_NAME    = SAOCOM 1A
OBJECT_ID      = 2018-076A
CENTER_NAME    = EARTH
REF_FRAME      = TEME
TIME_SYSTEM    = UTC
MEAN_ELEMENT_THEORY = SGP/SGP4

EPOCH          = 2026-02-20T22:48:33.574176
MEAN_MOTION    = 14.82150807
ECCENTRICITY   = .00013554
INCLINATION    = 97.8873
RA_OF_ASC_NODE = 240.3595
ARG_OF_PERICENTER = 80.3746
MEAN_ANOMALY   = 279.7620

EPHEMERIS_TYPE = 0
CLASSIFICATION_TYPE = U
NORAD_CAT_ID   = 43641
ELEMENT_SET_NO = 999
REV_AT_EPOCH   = 39888
BSTAR          = .15091008E-3
MEAN_MOTION_DOT = .1149E-4
MEAN_MOTION_DDOT = 0

CCSDS_OMM_VERS = 2.0
CREATION_DATE  = 
ORIGINATOR     = 

OBJECT_NAME    = H-2A R/B
OBJECT_ID      = 2018-084L
CENTER_NAME    = EARTH
REF_FRAME      = TEME
TIME_SYSTEM    = UTC
MEAN_ELEMENT_THEORY = SGP/SGP4

EPOCH          = 2026-02-20T15:42:38.906208
MEAN_MOTION    = 15.40554579
ECCENTRICITY   = .00263111
INCLINATION    = 98.8744
RA_OF_ASC_NODE = 265.4119
ARG_OF_PERICENTER = 82.5248
MEAN_ANOMALY   = 277.8982

EPHEMERIS_TYPE = 0
CLASSIFICATION_TYPE = U
NORAD_CAT_ID   = 43682
ELEMENT_SET_NO = 999
REV_AT_EPOCH   = 40315
BSTAR          = .43267831E-3
MEAN_MOTION_DOT = .17704E-3
MEAN_MOTION_DDOT = 0

CCSDS_OMM_VERS = 2.0
CREATION_DATE  = 
ORIGINATOR     = 

OBJECT_NAME    = SAOCOM 1B
OBJECT_ID      = 2020-059A
CENTER_NAME    = EARTH
REF_FRAME      = TEME
TIME_SYSTEM    = UTC
MEAN_ELEMENT_THEORY = SGP/SGP4

EPOCH          = 2026-02-20T20:19:07.840992
MEAN_MOTION    = 14.82151560
ECCENTRICITY   = .00014757
INCLINATION    = 97.8872
RA_OF_ASC_NODE = 239.3553
ARG_OF_PERICENTER = 83.1442
MEAN_ANOMALY   = 276.9939

EPHEMERIS_TYPE = 0
CLASSIFICATION_TYPE = U
NORAD_CAT_ID   = 46265
ELEMENT_SET_NO = 999
REV_AT_EPOCH   = 29625
BSTAR          = .2884226E-4
MEAN_MOTION_DOT = .177E-5
MEAN_MOTION_DDOT = 0

CCSDS_OMM_VERS = 2.0
CREATION_DATE  = 
ORIGINATOR     = 

OBJECT_NAME    = CSS (TIANHE)
OBJECT_ID      = 2021-035A
CENTER_NAME    = EARTH
REF_FRAME      = TEME
TIME_SYSTEM    = UTC
MEAN_ELEMENT_THEORY = SGP/SGP4

EPOCH          = 2026-02-20T22:41:31.159392
MEAN_MOTION    = 15.59946673
ECCENTRICITY   = .00048141
INCLINATION    = 41.4672
RA_OF_ASC_NODE = 309.9874
ARG_OF_PERICENTER = 158.5479
MEAN_ANOMALY   = 201.5562

EPHEMERIS_TYPE = 0
CLASSIFICATION_TYPE = U
NORAD_CAT_ID   = 48274
ELEMENT_SET_NO = 999
REV_AT_EPOCH   = 27499
BSTAR          = .27735445E-3
MEAN_MOTION_DOT = .2276E-3
MEAN_MOTION_DDOT = 0

CCSDS_OMM_VERS = 2.0
CREATION_DATE  = 
ORIGINATOR     = 

OBJECT_NAME    = COSMOS 2550
OBJECT_ID      = 2021-056A
CENTER_NAME    = EARTH
REF_FRAME      = TEME
TIME_SYSTEM    = UTC
MEAN_ELEMENT_THEORY = SGP/SGP4

EPOCH          = 2026-02-20T05:41:44.727072
MEAN_MOTION    = 15.33829214
ECCENTRICITY   = .00083763
INCLINATION    = 67.1417
RA_OF_ASC_NODE = 93.7235
ARG_OF_PERICENTER = 269.6268
MEAN_ANOMALY   = 90.3927

EPHEMERIS_TYPE = 0
CLASSIFICATION_TYPE = U
NORAD_CAT_ID   = 48865
ELEMENT_SET_NO = 999
REV_AT_EPOCH   = 26078
BSTAR          = .271694E-6
MEAN_MOTION_DOT = -.183E-5
MEAN_MOTION_DDOT = 0

CCSDS_OMM_VERS = 2.0
CREATION_DATE  = 
ORIGINATOR     = 

OBJECT_NAME    = CZ-2C R/B
OBJECT_ID      = 2022-058K
CENTER_NAME    = EARTH
REF_FRAME      = TEME
TIME_SYSTEM    = UTC
MEAN_ELEMENT_THEORY = SGP/SGP4

EPOCH          = 2026-02-20T00:24:44.143776
MEAN_MOTION    = 15.52924326
ECCENTRICITY   = .00421425
INCLINATION    = 50.1886
RA_OF_ASC_NODE = 49.1039
ARG_OF_PERICENTER = 125.5608
MEAN_ANOMALY   = 234.9302

EPHEMERIS_TYPE = 0
CLASSIFICATION_TYPE = U
NORAD_CAT_ID   = 52794
ELEMENT_SET_NO = 999
REV_AT_EPOCH   = 20738
BSTAR          = .43222218E-3
MEAN_MOTION_DOT = .28087E-3
MEAN_MOTION_DDOT = 0

