SL-4 R/B                
1 39679U 14021B   26051.35459112  .00011967  00000+0  27102-3 0  9994
2 39679  51.6065  61.8055 0098785  39.7663 321.0508 15.38556195653602
ALOS-2                  
1 39766U 14029A   26051.94595397  .00001002  00000+0  14104-3 0  9997
2 39766  97.9208 150.7846 0001575 100.3443 259.7946 14.79467646634393
YAOGAN-29               
1 41038U 15069A   26051.99379537  .00000040  00000+0  11593-4 0  9999
2 41038  98.0159  80.3767 0002732  63.9784 296.1711 14.82974506553402
ASTRO-H (HITOMI)        
1 41337U 16012A   26051.51273449  .00002772  00000+0  16123-3 0  9990
2 41337  30.9991 107.3818 0009899 160.3808 199.7213 15.09870715549632
HXMT (HUIYAN)           
1 42758U 17034A   26051.59656124  .00004923  00000+0  25193-3 0  9993
2 42758  43.0138 111.6867 0030748 128.0081 232.3550 15.17234358479941
CZ-2C R/B               
1 43521U 18054D   26051.41500329  .00712177  25779-3  79853-3 0  9994
2 43521  35.1266  60.0002 0011512 146.6244 213.5227 16.08190178426123
SAOCOM 1A               
1 43641U 18076A   26051.95038859  .00001149  00000+0  15091-3 0  9994
2 43641  97.8873 240.3595 0001355  80.3746 279.7620 14.82150807398887
H-2A R/B                
1 43682U 18084L   26051.65461697  .00017704  00000+0  43268-3 0  9996
2 43682  98.8744 265.4119 0026311  82.5248 277.8982 15.40554579403156
SAOCOM 1B               
1 46265U 20059A   26051.84661853  .00000177  00000+0  28842-4 0  9996
2 46265  97.8872 239.3553 0001475  83.1442 276.9939 14.82151560296257
CSS (TIANHE)            
1 48274U 21035A   26051.94549953  .00022760  00000+0  27735-3 0  9991
2 48274  41.4672 309.9874 0004814 158.5479 201.5562 15.59946673274994
COSMOS 2550             
1 48865U 21056A   26051.23732323 -.00000183  00000+0  27169-6 0  9997
2 48865  67.1417  93.7235 0008376 269.6268  90.3927 15.33829214260782
CZ-2C R/B               
1 52794U 22058K   26051.01717759  .00028087  00000+0  43222-3 0  9995
2 52794  50.1886  49.1039 0042142 125.5608 234.9302 15.52924326207385
